[{"OBJECT_NAME":"STARLINK-3451","OBJECT_ID":"2022-016AM","EPOCH":"2026-03-09T22:27:09.664128","MEAN_MOTION":15.08833283,"ECCENTRICITY":0.00014225,"INCLINATION":53.2187,"RA_OF_ASC_NODE":318.1996,"ARG_OF_PERICENTER":88.2915,"MEAN_ANOMALY":271.8241,"EPHEMERIS_TYPE":0,"CLASSIFICATION_TYPE":"U","NORAD_CAT_ID":51749,"ELEMENT_SET_NO":999,"REV_AT_EPOCH":22359,"BSTAR":0.00016258917,"MEAN_MOTION_DOT":2.3e-5,"MEAN_MOTION_DDOT":0},{"OBJECT_NAME":"UPPER FREE FLYER","OBJECT_ID":"2018-099F","EPOCH":"2026-03-09T16:53:56.769792","MEAN_MOTION":15.10728091,"ECCENTRICITY":0.00115819,"INCLINATION":97.4495,"RA_OF_ASC_NODE":120.4613,"ARG_OF_PERICENTER":289.4209,"MEAN_ANOMALY":70.5769,"EPHEMERIS_TYPE":0,"CLASSIFICATION_TYPE":"U","NORAD_CAT_ID":43763,"ELEMENT_SET_NO":999,"REV_AT_EPOCH":39752,"BSTAR":0.00029221901,"MEAN_MOTION_DOT":4.788e-5,"MEAN_MOTION_DDOT":0}]
